{
    "CCSDS_OMM_VERS": "3.0",
    "COMMENT": "GENERATED VIA SPACE-TRACK.ORG API",
    "CREATION_DATE": "2025-05-23T14:36:33",
    "ORIGINATOR": "18 SPCS",
    "OBJECT_NAME": "COSMOS 2466 (GLONASS)",
    "OBJECT_ID": "2010-041A",
    "CENTER_NAME": "EARTH",
    "REF_FRAME": "TEME",
    "TIME_SYSTEM": "UTC",
    "MEAN_ELEMENT_THEORY": "SGP4",
    "EPOCH": "2025-05-23T05:45:00.399744",
    "MEAN_MOTION": "2.13112586",
    "ECCENTRICITY": "0.00177230",
    "INCLINATION": "63.8910",
    "RA_OF_ASC_NODE": "203.4436",
    "ARG_OF_PERICENTER": "180.0087",
    "MEAN_ANOMALY": "264.7560",
    "EPHEMERIS_TYPE": "0",
    "CLASSIFICATION_TYPE": "U",
    "NORAD_CAT_ID": "37137",
    "ELEMENT_SET_NO": "999",
    "REV_AT_EPOCH": "11459",
    "BSTAR": "0.00000000000000",
    "MEAN_MOTION_DOT": "0.00000067",
    "MEAN_MOTION_DDOT": "0.0000000000000",
    "SEMIMAJOR_AXIS": "25507.180",
    "PERIOD": "675.699",
    "APOAPSIS": "19174.251",
    "PERIAPSIS": "19083.838",
    "OBJECT_TYPE": "PAYLOAD",
    "RCS_SIZE": "LARGE",
    "COUNTRY_CODE": "CIS",
    "LAUNCH_DATE": "2010-09-02",
    "SITE": "TTMTR",
    "DECAY_DATE": null,
    "FILE": "4736947",
    "GP_ID": "288173976",
    "TLE_LINE0": "0 COSMOS 2466 (GLONASS)",
    "TLE_LINE1": "1 37137U 10041A   25143.23958796  .00000067  00000-0  00000+0 0  9993",
    "TLE_LINE2": "2 37137  63.8910 203.4436 0017723 180.0087 264.7560  2.13112586114595"
}